COSMOS 2251 DEB         
1 36049U 93036AXL 17345.27486171  .00000446  00000-0  13933-3 0  9995
2 36049  74.0370 189.7310 0019149 277.1975  82.7004 14.43521489430544
